{"fetched_at":"2026-07-14T06:34:51.094Z","source":"https://celestrak.org/NORAD/elements/gp.php?NAME=JILIN&FORMAT=JSON","constellation":"jilin-1-gaofen","records":[{"OBJECT_NAME":"JILIN-1 GAOFEN 3A","OBJECT_ID":"2019-032C","EPOCH":"2026-07-13T11:27:39.393792","CLASSIFICATION_TYPE":"U","MEAN_MOTION":15.33168266,"ECCENTRICITY":0.00047103,"INCLINATION":44.9725,"RA_OF_ASC_NODE":212.1831,"ARG_OF_PERICENTER":91.3248,"MEAN_ANOMALY":268.8176,"EPHEMERIS_TYPE":0,"NORAD_CAT_ID":44312,"ELEMENT_SET_NO":999,"REV_AT_EPOCH":39187,"BSTAR":0.00018755809,"MEAN_MOTION_DOT":0.0000582,"MEAN_MOTION_DDOT":0},{"OBJECT_NAME":"JILIN-1 GAOFEN 2A","OBJECT_ID":"2019-075A","EPOCH":"2026-07-13T20:19:04.861056","CLASSIFICATION_TYPE":"U","MEAN_MOTION":15.39991372,"ECCENTRICITY":0.0005316,"INCLINATION":97.4969,"RA_OF_ASC_NODE":279.2713,"ARG_OF_PERICENTER":0.3462,"MEAN_ANOMALY":359.7786,"EPHEMERIS_TYPE":0,"NORAD_CAT_ID":44777,"ELEMENT_SET_NO":999,"REV_AT_EPOCH":36898,"BSTAR":0.00021987,"MEAN_MOTION_DOT":0.00008687,"MEAN_MOTION_DDOT":0},{"OBJECT_NAME":"JILIN-1 GAOFEN 2B","OBJECT_ID":"2019-086A","EPOCH":"2026-07-13T20:38:04.992000","CLASSIFICATION_TYPE":"U","MEAN_MOTION":15.20990674,"ECCENTRICITY":0.0013137,"INCLINATION":97.4877,"RA_OF_ASC_NODE":266.6866,"ARG_OF_PERICENTER":220.7364,"MEAN_ANOMALY":139.289,"EPHEMERIS_TYPE":0,"NORAD_CAT_ID":44836,"ELEMENT_SET_NO":999,"REV_AT_EPOCH":36454,"BSTAR":0.00015828,"MEAN_MOTION_DOT":0.00003445,"MEAN_MOTION_DDOT":0},{"OBJECT_NAME":"JILIN-1 GAOFEN 3E","OBJECT_ID":"2020-065D","EPOCH":"2026-07-13T19:34:02.765856","CLASSIFICATION_TYPE":"U","MEAN_MOTION":15.67087901,"ECCENTRICITY":0.0010415,"INCLINATION":97.2216,"RA_OF_ASC_NODE":248.1008,"ARG_OF_PERICENTER":76.5358,"MEAN_ANOMALY":283.7063,"EPHEMERIS_TYPE":0,"NORAD_CAT_ID":46457,"ELEMENT_SET_NO":999,"REV_AT_EPOCH":32392,"BSTAR":0.00048154,"MEAN_MOTION_DOT":0.00051567,"MEAN_MOTION_DDOT":0},{"OBJECT_NAME":"JILIN-1 GAOFEN 3F","OBJECT_ID":"2020-065E","EPOCH":"2026-07-13T19:50:54.255840","CLASSIFICATION_TYPE":"U","MEAN_MOTION":15.63828248,"ECCENTRICITY":0.0011779,"INCLINATION":97.2174,"RA_OF_ASC_NODE":245.3114,"ARG_OF_PERICENTER":62.6818,"MEAN_ANOMALY":297.5639,"EPHEMERIS_TYPE":0,"NORAD_CAT_ID":46458,"ELEMENT_SET_NO":999,"REV_AT_EPOCH":32386,"BSTAR":0.00042215,"MEAN_MOTION_DOT":0.00039667,"MEAN_MOTION_DDOT":0},{"OBJECT_NAME":"JILIN-1 GAOFEN 3G","OBJECT_ID":"2020-065F","EPOCH":"2026-07-13T20:25:56.989920","CLASSIFICATION_TYPE":"U","MEAN_MOTION":15.76693044,"ECCENTRICITY":0.0005282,"INCLINATION":97.2232,"RA_OF_ASC_NODE":252.6315,"ARG_OF_PERICENTER":280.5767,"MEAN_ANOMALY":79.4904,"EPHEMERIS_TYPE":0,"NORAD_CAT_ID":46459,"ELEMENT_SET_NO":999,"REV_AT_EPOCH":32413,"BSTAR":0.00053166,"MEAN_MOTION_DOT":0.00085446,"MEAN_MOTION_DDOT":0},{"OBJECT_NAME":"JILIN-1 GAOFEN 3H","OBJECT_ID":"2020-065G","EPOCH":"2026-07-13T19:51:13.766688","CLASSIFICATION_TYPE":"U","MEAN_MOTION":15.72088075,"ECCENTRICITY":0.0006232,"INCLINATION":97.218,"RA_OF_ASC_NODE":248.7519,"ARG_OF_PERICENTER":207.3569,"MEAN_ANOMALY":152.7368,"EPHEMERIS_TYPE":0,"NORAD_CAT_ID":46460,"ELEMENT_SET_NO":999,"REV_AT_EPOCH":32406,"BSTAR":0.00052205,"MEAN_MOTION_DOT":0.00068715,"MEAN_MOTION_DDOT":0},{"OBJECT_NAME":"JILIN-1 GAOFEN 2D","OBJECT_ID":"2021-086A","EPOCH":"2026-07-13T20:27:10.314144","CLASSIFICATION_TYPE":"U","MEAN_MOTION":15.10859564,"ECCENTRICITY":0.0034166,"INCLINATION":97.6505,"RA_OF_ASC_NODE":317.5586,"ARG_OF_PERICENTER":55.1504,"MEAN_ANOMALY":305.293,"EPHEMERIS_TYPE":0,"NORAD_CAT_ID":49256,"ELEMENT_SET_NO":999,"REV_AT_EPOCH":26474,"BSTAR":0.00011894,"MEAN_MOTION_DOT":0.00001938,"MEAN_MOTION_DDOT":0},{"OBJECT_NAME":"JILIN-1 GAOFEN 2F","OBJECT_ID":"2021-097A","EPOCH":"2026-07-13T20:17:01.892256","CLASSIFICATION_TYPE":"U","MEAN_MOTION":15.07940424,"ECCENTRICITY":0.0019687,"INCLINATION":97.6726,"RA_OF_ASC_NODE":320.9855,"ARG_OF_PERICENTER":134.188,"MEAN_ANOMALY":226.097,"EPHEMERIS_TYPE":0,"NORAD_CAT_ID":49338,"ELEMENT_SET_NO":999,"REV_AT_EPOCH":26033,"BSTAR":0.00015792,"MEAN_MOTION_DOT":0.00002371,"MEAN_MOTION_DDOT":0},{"OBJECT_NAME":"JILIN-1 GAOFEN 3D27","OBJECT_ID":"2022-048B","EPOCH":"2026-07-13T20:06:53.950752","CLASSIFICATION_TYPE":"U","MEAN_MOTION":15.82716769,"ECCENTRICITY":0.000511,"INCLINATION":97.5728,"RA_OF_ASC_NODE":311.3402,"ARG_OF_PERICENTER":248.1804,"MEAN_ANOMALY":111.8921,"EPHEMERIS_TYPE":0,"NORAD_CAT_ID":52444,"ELEMENT_SET_NO":999,"REV_AT_EPOCH":23368,"BSTAR":0.00061289,"MEAN_MOTION_DOT":0.00130022,"MEAN_MOTION_DDOT":0},{"OBJECT_NAME":"JILIN-1 GAOFEN 3D28","OBJECT_ID":"2022-048C","EPOCH":"2026-07-13T20:03:50.011200","CLASSIFICATION_TYPE":"U","MEAN_MOTION":15.87628482,"ECCENTRICITY":0.0004938,"INCLINATION":97.5665,"RA_OF_ASC_NODE":311.6294,"ARG_OF_PERICENTER":245.274,"MEAN_ANOMALY":114.8017,"EPHEMERIS_TYPE":0,"NORAD_CAT_ID":52445,"ELEMENT_SET_NO":999,"REV_AT_EPOCH":23374,"BSTAR":0.0006729,"MEAN_MOTION_DOT":0.00181537,"MEAN_MOTION_DDOT":0},{"OBJECT_NAME":"JILIN-1 GAOFEN 3D29","OBJECT_ID":"2022-048D","EPOCH":"2026-07-13T21:16:28.949952","CLASSIFICATION_TYPE":"U","MEAN_MOTION":15.82943155,"ECCENTRICITY":0.0004444,"INCLINATION":97.5735,"RA_OF_ASC_NODE":311.7583,"ARG_OF_PERICENTER":230.94,"MEAN_ANOMALY":129.1473,"EPHEMERIS_TYPE":0,"NORAD_CAT_ID":52446,"ELEMENT_SET_NO":999,"REV_AT_EPOCH":23371,"BSTAR":0.00061951,"MEAN_MOTION_DOT":0.00132839,"MEAN_MOTION_DDOT":0},{"OBJECT_NAME":"JILIN-1 GAOFEN 3D31","OBJECT_ID":"2022-048F","EPOCH":"2026-07-13T20:39:29.530944","CLASSIFICATION_TYPE":"U","MEAN_MOTION":15.93300673,"ECCENTRICITY":0.0005355,"INCLINATION":97.5692,"RA_OF_ASC_NODE":313.0569,"ARG_OF_PERICENTER":242.3949,"MEAN_ANOMALY":117.6781,"EPHEMERIS_TYPE":0,"NORAD_CAT_ID":52448,"ELEMENT_SET_NO":999,"REV_AT_EPOCH":23381,"BSTAR":0.00072309,"MEAN_MOTION_DOT":0.00254254,"MEAN_MOTION_DDOT":0.000026724},{"OBJECT_NAME":"JILIN-1 GAOFEN 03D09","OBJECT_ID":"2022-098B","EPOCH":"2026-07-13T21:10:00.253632","CLASSIFICATION_TYPE":"U","MEAN_MOTION":15.70106102,"ECCENTRICITY":0.0003341,"INCLINATION":97.5623,"RA_OF_ASC_NODE":326.6301,"ARG_OF_PERICENTER":237.1244,"MEAN_ANOMALY":122.9697,"EPHEMERIS_TYPE":0,"NORAD_CAT_ID":53445,"ELEMENT_SET_NO":999,"REV_AT_EPOCH":21881,"BSTAR":0.00046229,"MEAN_MOTION_DOT":0.00055876,"MEAN_MOTION_DDOT":0},{"OBJECT_NAME":"JILIN-1 GAOFEN 03D43","OBJECT_ID":"2022-098E","EPOCH":"2026-07-13T20:39:55.864800","CLASSIFICATION_TYPE":"U","MEAN_MOTION":15.73828247,"ECCENTRICITY":0.000363,"INCLINATION":97.5615,"RA_OF_ASC_NODE":327.7604,"ARG_OF_PERICENTER":232.8879,"MEAN_ANOMALY":127.2054,"EPHEMERIS_TYPE":0,"NORAD_CAT_ID":53448,"ELEMENT_SET_NO":999,"REV_AT_EPOCH":21888,"BSTAR":0.00049063,"MEAN_MOTION_DOT":0.00069477,"MEAN_MOTION_DDOT":0},{"OBJECT_NAME":"JILIN-1 GAOFEN 03D08","OBJECT_ID":"2022-155A","EPOCH":"2026-07-13T20:59:19.332384","CLASSIFICATION_TYPE":"U","MEAN_MOTION":15.67433952,"ECCENTRICITY":0.000419,"INCLINATION":97.6227,"RA_OF_ASC_NODE":342.4697,"ARG_OF_PERICENTER":232.3913,"MEAN_ANOMALY":127.6968,"EPHEMERIS_TYPE":0,"NORAD_CAT_ID":54251,"ELEMENT_SET_NO":999,"REV_AT_EPOCH":20399,"BSTAR":0.00039569,"MEAN_MOTION_DOT":0.00042797,"MEAN_MOTION_DDOT":0}]}
