JILIN-1 GAOFEN 3A       
1 44312U 19032C   26194.47753928  .00005820  00000+0  18756-3 0  9990
2 44312  44.9725 212.1831 0004710  91.3248 268.8176 15.33168266391871
JILIN-1 GAOFEN 2A       
1 44777U 19075A   26194.84658404  .00008687  00000+0  21987-3 0  9990
2 44777  97.4969 279.2713 0005316   0.3462 359.7786 15.39991372368984
JILIN-1 GAOFEN 2B       
1 44836U 19086A   26194.85978000  .00003445  00000+0  15828-3 0  9990
2 44836  97.4877 266.6866 0013137 220.7364 139.2890 15.20990674364545
JILIN-1 GAOFEN 3E       
1 46457U 20065D   26194.81530979  .00051567  00000+0  48154-3 0  9991
2 46457  97.2216 248.1008 0010415  76.5358 283.7063 15.67087901323925
JILIN-1 GAOFEN 3F       
1 46458U 20065E   26194.82701685  .00039667  00000+0  42215-3 0  9996
2 46458  97.2174 245.3114 0011779  62.6818 297.5639 15.63828248323865
JILIN-1 GAOFEN 3G       
1 46459U 20065F   26194.85135405  .00085446  00000+0  53166-3 0  9994
2 46459  97.2232 252.6315 0005282 280.5767  79.4904 15.76693044324132
JILIN-1 GAOFEN 3H       
1 46460U 20065G   26194.82724267  .00068715  00000+0  52205-3 0  9996
2 46460  97.2180 248.7519 0006232 207.3569 152.7368 15.72088075324060
JILIN-1 GAOFEN 2D       
1 49256U 21086A   26194.85220271  .00001938  00000+0  11894-3 0  9998
2 49256  97.6505 317.5586 0034166  55.1504 305.2930 15.10859564264744
JILIN-1 GAOFEN 2F       
1 49338U 21097A   26194.84516079  .00002371  00000+0  15792-3 0  9997
2 49338  97.6726 320.9855 0019687 134.1880 226.0970 15.07940424260330
JILIN-1 GAOFEN 3D27     
1 52444U 22048B   26194.83812443  .00130022  00000+0  61289-3 0  9996
2 52444  97.5728 311.3402 0005110 248.1804 111.8921 15.82716769233684
JILIN-1 GAOFEN 3D28     
1 52445U 22048C   26194.83599550  .00181537  00000+0  67290-3 0  9993
2 52445  97.5665 311.6294 0004938 245.2740 114.8017 15.87628482233746
JILIN-1 GAOFEN 3D29     
1 52446U 22048D   26194.88644618  .00132839  00000+0  61951-3 0  9994
2 52446  97.5735 311.7583 0004444 230.9400 129.1473 15.82943155233717
JILIN-1 GAOFEN 3D31     
1 52448U 22048F   26194.86075846  .00254254  26724-4  72309-3 0  9996
2 52448  97.5692 313.0569 0005355 242.3949 117.6781 15.93300673233816
JILIN-1 GAOFEN 03D09    
1 53445U 22098B   26194.88194738  .00055876  00000+0  46229-3 0  9998
2 53445  97.5623 326.6301 0003341 237.1244 122.9697 15.70106102218819
JILIN-1 GAOFEN 03D43    
1 53448U 22098E   26194.86106325  .00069477  00000+0  49063-3 0  9995
2 53448  97.5615 327.7604 0003630 232.8879 127.2054 15.73828247218884
JILIN-1 GAOFEN 03D08    
1 54251U 22155A   26194.87452931  .00042797  00000+0  39569-3 0  9996
2 54251  97.6227 342.4697 0004190 232.3913 127.6968 15.67433952203991
